{
  "norad_id": 68574,
  "name": "KUIPER-00189",
  "history": [
    {
      "epoch": "2026-04-09T13:32:07.070208Z",
      "apogee_km": 451.21908190057,
      "perigee_km": 449.42865946027723,
      "latitude_deg": 3.0657916790274456e-05,
      "longitude_deg": 107.90030617547492,
      "height_km": 450.7389327093266,
      "semi_major_axis_km": 6828.460870680424,
      "eccentricity": 0.0001311,
      "inclination_deg": 51.8751,
      "raan_deg": 148.7401,
      "arg_perigee_deg": 67.1995,
      "mean_anomaly_deg": 292.9131,
      "mean_motion_rev_day": 15.38574479
    }
  ]
}