KUIPER-00189            
1 68574U 26072B   26099.56397072  .00022455  00000+0  58889-3 0  9990
2 68574  51.8751 148.7401 0001311  67.1995 292.9131 15.38574479   827
